{
  "type": "FeatureCollection",
  "features": [
    {
      "type": "Feature",
      "properties": {
        "norad_id": 25590,
        "name": "COSMOS 2361",
        "group": "musson",
        "lat": 43.94854230563171,
        "lon": -7.976634615338768,
        "alt_km": 999.8147385514785,
        "timestamp": "2025-12-11T07:02:23.999994+00:00",
        "meta_object_name": "COSMOS 2361",
        "meta_object_id": "1998-076A",
        "meta_epoch": "2025-12-10T17:40:58.063296",
        "meta_mean_motion": 13.73217206,
        "meta_eccentricity": 0.00300527,
        "meta_inclination": 82.9338,
        "meta_ra_of_asc_node": 345.568,
        "meta_arg_of_pericenter": 271.4272,
        "meta_mean_anomaly": 262.9732,
        "meta_ephemeris_type": 0,
        "meta_classification_type": "U",
        "meta_norad_cat_id": 25590,
        "meta_element_set_no": 999,
        "meta_rev_at_epoch": 35083,
        "meta_bstar": 9.2542067e-05,
        "meta_mean_motion_dot": 1.01e-06,
        "meta_mean_motion_ddot": 0,
        "tle_line1": "1 25590U 98076A   25344.73678314  .00000101  00000+0  92542-4 0  9995",
        "tle_line2": "2 25590  82.9338 345.5680 0030052 271.4272 262.9732 13.73217206350834"
      },
      "geometry": {
        "type": "Point",
        "coordinates": [
          -7.976634615338768,
          43.94854230563171
        ]
      }
    },
    {
      "type": "Feature",
      "properties": {
        "norad_id": 26818,
        "name": "COSMOS 2378",
        "group": "musson",
        "lat": 67.2307831357637,
        "lon": 163.59320700983207,
        "alt_km": 981.1654889554484,
        "timestamp": "2025-12-11T07:02:24.000016+00:00",
        "meta_object_name": "COSMOS 2378",
        "meta_object_id": "2001-023A",
        "meta_epoch": "2025-12-10T19:06:21.123648",
        "meta_mean_motion": 13.74141768,
        "meta_eccentricity": 0.0032294,
        "meta_inclination": 82.9273,
        "meta_ra_of_asc_node": 1.1662,
        "meta_arg_of_pericenter": 210.39,
        "meta_mean_anomaly": 323.142,
        "meta_ephemeris_type": 0,
        "meta_classification_type": "U",
        "meta_norad_cat_id": 26818,
        "meta_element_set_no": 999,
        "meta_rev_at_epoch": 22896,
        "meta_bstar": 5.8669144e-05,
        "meta_mean_motion_dot": 7e-07,
        "meta_mean_motion_ddot": 0,
        "tle_line1": "1 26818U 01023A   25344.79607782  .00000070  00000+0  58669-4 0  9999",
        "tle_line2": "2 26818  82.9273   1.1662 0032294 210.3900 323.1420 13.74141768228963"
      },
      "geometry": {
        "type": "Point",
        "coordinates": [
          163.59320700983207,
          67.2307831357637
        ]
      }
    },
    {
      "type": "Feature",
      "properties": {
        "norad_id": 27436,
        "name": "COSMOS 2389",
        "group": "musson",
        "lat": -46.45223609041127,
        "lon": -59.42454745799604,
        "alt_km": 1000.5564391236976,
        "timestamp": "2025-12-11T07:02:24.000029+00:00",
        "meta_object_name": "COSMOS 2389",
        "meta_object_id": "2002-026A",
        "meta_epoch": "2025-12-10T10:54:24.322752",
        "meta_mean_motion": 13.75154267,
        "meta_eccentricity": 0.00476693,
        "meta_inclination": 82.95,
        "meta_ra_of_asc_node": 308.6765,
        "meta_arg_of_pericenter": 66.9463,
        "meta_mean_anomaly": 56.1274,
        "meta_ephemeris_type": 0,
        "meta_classification_type": "U",
        "meta_norad_cat_id": 27436,
        "meta_element_set_no": 999,
        "meta_rev_at_epoch": 18117,
        "meta_bstar": 9.1929717e-05,
        "meta_mean_motion_dot": 1.04e-06,
        "meta_mean_motion_ddot": 0,
        "tle_line1": "1 27436U 02026A   25344.45444818  .00000104  00000+0  91930-4 0  9998",
        "tle_line2": "2 27436  82.9500 308.6765 0047669  66.9463  56.1274 13.75154267181173"
      },
      "geometry": {
        "type": "Point",
        "coordinates": [
          -59.42454745799604,
          -46.45223609041127
        ]
      }
    },
    {
      "type": "Feature",
      "properties": {
        "norad_id": 27818,
        "name": "COSMOS 2398",
        "group": "musson",
        "lat": -77.1056499235932,
        "lon": -118.96516290005665,
        "alt_km": 1021.5418156791002,
        "timestamp": "2025-12-11T07:02:24.000041+00:00",
        "meta_object_name": "COSMOS 2398",
        "meta_object_id": "2003-023A",
        "meta_epoch": "2025-12-10T13:01:08.734944",
        "meta_mean_motion": 13.72385408,
        "meta_eccentricity": 0.0032507,
        "meta_inclination": 82.9484,
        "meta_ra_of_asc_node": 274.3174,
        "meta_arg_of_pericenter": 117.6703,
        "meta_mean_anomaly": 55.4197,
        "meta_ephemeris_type": 0,
        "meta_classification_type": "U",
        "meta_norad_cat_id": 27818,
        "meta_element_set_no": 999,
        "meta_rev_at_epoch": 12786,
        "meta_bstar": 9.8489e-05,
        "meta_mean_motion_dot": 1.06e-06,
        "meta_mean_motion_ddot": 0,
        "tle_line1": "1 27818U 03023A   25344.54246221  .00000106  00000+0  98489-4 0  9996",
        "tle_line2": "2 27818  82.9484 274.3174 0032507 117.6703  55.4197 13.72385408127869"
      },
      "geometry": {
        "type": "Point",
        "coordinates": [
          -118.96516290005665,
          -77.1056499235932
        ]
      }
    },
    {
      "type": "Feature",
      "properties": {
        "norad_id": 28380,
        "name": "COSMOS 2407",
        "group": "musson",
        "lat": 80.52928394812679,
        "lon": -13.823045373718879,
        "alt_km": 946.0163767136082,
        "timestamp": "2025-12-11T07:02:24.000051+00:00",
        "meta_object_name": "COSMOS 2407",
        "meta_object_id": "2004-028A",
        "meta_epoch": "2025-12-10T21:54:15.310944",
        "meta_mean_motion": 13.76313375,
        "meta_eccentricity": 0.00403915,
        "meta_inclination": 82.9609,
        "meta_ra_of_asc_node": 214.2454,
        "meta_arg_of_pericenter": 59.8093,
        "meta_mean_anomaly": 311.262,
        "meta_ephemeris_type": 0,
        "meta_classification_type": "U",
        "meta_norad_cat_id": 28380,
        "meta_element_set_no": 999,
        "meta_rev_at_epoch": 7398,
        "meta_bstar": 6.9079881e-05,
        "meta_mean_motion_dot": 8.3e-07,
        "meta_mean_motion_ddot": 0,
        "tle_line1": "1 28380U 04028A   25344.91267721  .00000083  00000+0  69080-4 0  9995",
        "tle_line2": "2 28380  82.9609 214.2454 0040391  59.8093 311.2620 13.76313375 73981"
      },
      "geometry": {
        "type": "Point",
        "coordinates": [
          -13.823045373718879,
          80.52928394812679
        ]
      }
    },
    {
      "type": "Feature",
      "properties": {
        "norad_id": 28521,
        "name": "COSMOS 2414",
        "group": "musson",
        "lat": -59.87071804963909,
        "lon": 173.4411507464398,
        "alt_km": 970.3088091554619,
        "timestamp": "2025-12-11T07:02:24.000062+00:00",
        "meta_object_name": "COSMOS 2414",
        "meta_object_id": "2005-002A",
        "meta_epoch": "2025-12-10T19:13:20.566272",
        "meta_mean_motion": 13.87902537,
        "meta_eccentricity": 0.0040783,
        "meta_inclination": 82.9493,
        "meta_ra_of_asc_node": 186.1261,
        "meta_arg_of_pericenter": 145.1098,
        "meta_mean_anomaly": 215.2752,
        "meta_ephemeris_type": 0,
        "meta_classification_type": "U",
        "meta_norad_cat_id": 28521,
        "meta_element_set_no": 999,
        "meta_rev_at_epoch": 5768,
        "meta_bstar": 6.9471423e-05,
        "meta_mean_motion_dot": 9.9e-07,
        "meta_mean_motion_ddot": 0,
        "tle_line1": "1 28521U 05002A   25344.80093248  .00000099  00000+0  69471-4 0  9995",
        "tle_line2": "2 28521  82.9493 186.1261 0040783 145.1098 215.2752 13.87902537 57685"
      },
      "geometry": {
        "type": "Point",
        "coordinates": [
          173.4411507464398,
          -59.87071804963909
        ]
      }
    },
    {
      "type": "Feature",
      "properties": {
        "norad_id": 32052,
        "name": "COSMOS 2429",
        "group": "musson",
        "lat": 39.54592254949156,
        "lon": 158.53647072188966,
        "alt_km": 982.1077669007209,
        "timestamp": "2025-12-11T07:02:24.000073+00:00",
        "meta_object_name": "COSMOS 2429",
        "meta_object_id": "2007-038A",
        "meta_epoch": "2025-12-10T18:08:28.709376",
        "meta_mean_motion": 13.75149079,
        "meta_eccentricity": 0.00393388,
        "meta_inclination": 82.9803,
        "meta_ra_of_asc_node": 344.7714,
        "meta_arg_of_pericenter": 43.2725,
        "meta_mean_anomaly": 317.151,
        "meta_ephemeris_type": 0,
        "meta_classification_type": "U",
        "meta_norad_cat_id": 32052,
        "meta_element_set_no": 999,
        "meta_rev_at_epoch": 91575,
        "meta_bstar": 7.462443e-05,
        "meta_mean_motion_dot": 8.7e-07,
        "meta_mean_motion_ddot": 0,
        "tle_line1": "1 32052U 07038A   25344.75588784  .00000087  00000+0  74624-4 0  9991",
        "tle_line2": "2 32052  82.9803 344.7714 0039338  43.2725 317.1510 13.75149079915754"
      },
      "geometry": {
        "type": "Point",
        "coordinates": [
          158.53647072188966,
          39.54592254949156
        ]
      }
    },
    {
      "type": "Feature",
      "properties": {
        "norad_id": 35635,
        "name": "COSMOS 2454",
        "group": "musson",
        "lat": -21.269117882125215,
        "lon": 166.98247125474145,
        "alt_km": 936.3958420845656,
        "timestamp": "2025-12-11T07:02:24.000083+00:00",
        "meta_object_name": "COSMOS 2454",
        "meta_object_id": "2009-039A",
        "meta_epoch": "2025-12-10T19:05:56.925600",
        "meta_mean_motion": 13.89928147,
        "meta_eccentricity": 0.00204746,
        "meta_inclination": 82.9553,
        "meta_ra_of_asc_node": 170.1186,
        "meta_arg_of_pericenter": 78.9544,
        "meta_mean_anomaly": 291.8352,
        "meta_ephemeris_type": 0,
        "meta_classification_type": "U",
        "meta_norad_cat_id": 35635,
        "meta_element_set_no": 999,
        "meta_rev_at_epoch": 83123,
        "meta_bstar": 6.3232185e-05,
        "meta_mean_motion_dot": 9.4e-07,
        "meta_mean_motion_ddot": 0,
        "tle_line1": "1 35635U 09039A   25344.79579775  .00000094  00000+0  63232-4 0  9999",
        "tle_line2": "2 35635  82.9553 170.1186 0020474  78.9544 291.8352 13.89928147831233"
      },
      "geometry": {
        "type": "Point",
        "coordinates": [
          166.98247125474145,
          -21.269117882125215
        ]
      }
    },
    {
      "type": "Feature",
      "properties": {
        "norad_id": 36519,
        "name": "COSMOS 2463",
        "group": "musson",
        "lat": 64.82589147773493,
        "lon": -167.46333648753838,
        "alt_km": 1013.0047459389252,
        "timestamp": "2025-12-11T07:02:24.000093+00:00",
        "meta_object_name": "COSMOS 2463",
        "meta_object_id": "2010-017A",
        "meta_epoch": "2025-12-10T20:49:29.614368",
        "meta_mean_motion": 13.71649017,
        "meta_eccentricity": 0.00348303,
        "meta_inclination": 82.9615,
        "meta_ra_of_asc_node": 28.0884,
        "meta_arg_of_pericenter": 293.4424,
        "meta_mean_anomaly": 240.2088,
        "meta_ephemeris_type": 0,
        "meta_classification_type": "U",
        "meta_norad_cat_id": 36519,
        "meta_element_set_no": 999,
        "meta_rev_at_epoch": 78211,
        "meta_bstar": 6.5584697e-05,
        "meta_mean_motion_dot": 7.4e-07,
        "meta_mean_motion_ddot": 0,
        "tle_line1": "1 36519U 10017A   25344.86770387  .00000074  00000+0  65585-4 0  9990",
        "tle_line2": "2 36519  82.9615  28.0884 0034830 293.4424 240.2088 13.71649017782115"
      },
      "geometry": {
        "type": "Point",
        "coordinates": [
          -167.46333648753838,
          64.82589147773493
        ]
      }
    }
  ]
}